ORBCOMM FM115           
1 41186U 15081H   25033.85966900  .00002259  00000+0  48020-3 0  9995
2 41186  46.9990 318.2276 0000408 190.8179 169.2699 14.62038314488111
ORBCOMM FM108           
1 41187U 15081J   25033.37578386  .00002576  00000+0  59526-3 0  9995
2 41187  47.0051  23.4509 0002453  26.9031 333.1982 14.57725305487128
ORBCOMM FM117           
1 41188U 15081K   25033.95903687  .00002576  00000+0  59503-3 0  9991
2 41188  47.0014  19.5070 0002566  42.6801 317.4283 14.57736238487252
ORBCOMM FM116           
1 41189U 15081L   25033.60666778  .00002727  00000+0  62772-3 0  9991
2 41189  47.0009 111.0233 0001626 197.0652 163.0179 14.57739859486015
